start=new Date('2022-06-06T00:00:00.000Z').valueOf();
sats=[{"GP_ID":"205449283","APOAPSIS":"540.961","ECCENTRICITY":"0.00016720","ELEMENT_SET_NO":"999","EPOCH":"2022-06-05T22:00:00.999936","ARG_OF_PERICENTER":"66.4895","COUNTRY_CODE":"US","CENTER_NAME":"EARTH","CLASSIFICATION_TYPE":"U","OBJECT_NAME":"STARLINK-3703","OBJECT_TYPE":"PAYLOAD","RA_OF_ASC_NODE":"131.7216","SITE":"AFETR","TIME_SYSTEM":"UTC","REV_AT_EPOCH":"130","MEAN_MOTION_DDOT":"0.0000000000000","FILE":"3482995","RCS_SIZE":"LARGE","LAUNCH_DATE":"2022-03-19","REF_FRAME":"TEME","PERIOD":"95.439","TLE_LINE1":"1 52101U 22029P   22156.91667824  .00021376  00000-0  13578-2 0  9998","MEAN_MOTION":"15.08820876","MEAN_ELEMENT_THEORY":"SGP4","DECAY_DATE":null,"INCLINATION":"53.2177","TLE_LINE2":"2 52101  53.2177 131.7216 0001672  66.4895  48.0284 15.08820876  1306","MEAN_ANOMALY":"48.0284","SEMIMAJOR_AXIS":"6917.939","OBJECT_ID":"2022-029P","PERIAPSIS":"538.647","MEAN_MOTION_DOT":"0.00021376","EPHEMERIS_TYPE":"0","NORAD_CAT_ID":"52101","BSTAR":"0.00135780000000"},{"BSTAR":"-0.02686600000000","NORAD_CAT_ID":"52102","MEAN_MOTION_DOT":"-0.00585844","EPHEMERIS_TYPE":"0","SEMIMAJOR_AXIS":"6877.128","MEAN_ANOMALY":"122.8613","PERIAPSIS":"497.673","OBJECT_ID":"2022-029Q","DECAY_DATE":null,"MEAN_ELEMENT_THEORY":"SGP4","TLE_LINE1":"1 52102U 22029Q   22156.91667824 -.00585844  00000-0 -26866-1 0  9999","MEAN_MOTION":"15.22271419","TLE_LINE2":"2 52102  53.2177 122.2104 0001919  38.4772 122.8613 15.22271419  1301","INCLINATION":"53.2177","RCS_SIZE":"LARGE","FILE":"3482995","MEAN_MOTION_DDOT":"0.0000000000000","REV_AT_EPOCH":"130","PERIOD":"94.595","REF_FRAME":"TEME","LAUNCH_DATE":"2022-03-19","OBJECT_TYPE":"PAYLOAD","RA_OF_ASC_NODE":"122.2104","OBJECT_NAME":"STARLINK-3709","CLASSIFICATION_TYPE":"U","TIME_SYSTEM":"UTC","SITE":"AFETR","ARG_OF_PERICENTER":"38.4772","CENTER_NAME":"EARTH","COUNTRY_CODE":"US","EPOCH":"2022-06-05T22:00:00.999936","APOAPSIS":"500.313","ECCENTRICITY":"0.00019190","GP_ID":"205449070","ELEMENT_SET_NO":"999"},{"SEMIMAJOR_AXIS":"6888.672","MEAN_ANOMALY":"60.1072","OBJECT_ID":"2022-029R","PERIAPSIS":"509.311","NORAD_CAT_ID":"52103","BSTAR":"-0.03715500000000","MEAN_MOTION_DOT":"-0.00721861","EPHEMERIS_TYPE":"0","FILE":"3482995","RCS_SIZE":"LARGE","MEAN_MOTION_DDOT":"0.0000000000000","REV_AT_EPOCH":"130","PERIOD":"94.834","LAUNCH_DATE":"2022-03-19","REF_FRAME":"TEME","DECAY_DATE":null,"MEAN_MOTION":"15.18446376","TLE_LINE1":"1 52103U 22029R   22156.91667824 -.00721861  00000-0 -37155-1 0  9994","MEAN_ELEMENT_THEORY":"SGP4","INCLINATION":"53.2174","TLE_LINE2":"2 52103  53.2174 121.9789 0001780  40.5257  60.1072 15.18446376  1306","ARG_OF_PERICENTER":"40.5257","CENTER_NAME":"EARTH","COUNTRY_CODE":"US","OBJECT_NAME":"STARLINK-3705","OBJECT_TYPE":"PAYLOAD","RA_OF_ASC_NODE":"121.9789","CLASSIFICATION_TYPE":"U","TIME_SYSTEM":"UTC","SITE":"AFETR","ECCENTRICITY":"0.00017800","APOAPSIS":"511.764","GP_ID":"205449814","ELEMENT_SET_NO":"999","EPOCH":"2022-06-05T22:00:00.999936"},{"NORAD_CAT_ID":"52105","BSTAR":"-0.03681900000000","EPHEMERIS_TYPE":"0","MEAN_MOTION_DOT":"-0.00722471","PERIAPSIS":"508.205","OBJECT_ID":"2022-029T","SEMIMAJOR_AXIS":"6887.634","MEAN_ANOMALY":"88.9233","INCLINATION":"53.2175","TLE_LINE2":"2 52105  53.2175 121.9857 0001879  38.6135  88.9233 15.18789742  1301","DECAY_DATE":null,"TLE_LINE1":"1 52105U 22029T   22156.91667824 -.00722471  00000-0 -36819-1 0  9990","MEAN_MOTION":"15.18789742","MEAN_ELEMENT_THEORY":"SGP4","PERIOD":"94.812","LAUNCH_DATE":"2022-03-19","REF_FRAME":"TEME","FILE":"3482995","RCS_SIZE":"LARGE","MEAN_MOTION_DDOT":"0.0000000000000","REV_AT_EPOCH":"130","TIME_SYSTEM":"UTC","SITE":"AFETR","OBJECT_NAME":"STARLINK-3706","OBJECT_TYPE":"PAYLOAD","RA_OF_ASC_NODE":"121.9857","CLASSIFICATION_TYPE":"U","CENTER_NAME":"EARTH","COUNTRY_CODE":"US","ARG_OF_PERICENTER":"38.6135","EPOCH":"2022-06-05T22:00:00.999936","ELEMENT_SET_NO":"999","APOAPSIS":"510.793","ECCENTRICITY":"0.00018790","GP_ID":"205449177"},{"OBJECT_TYPE":"PAYLOAD","RA_OF_ASC_NODE":"131.7213","OBJECT_NAME":"STARLINK-3670","CLASSIFICATION_TYPE":"U","TIME_SYSTEM":"UTC","SITE":"AFETR","ARG_OF_PERICENTER":"68.1072","CENTER_NAME":"EARTH","COUNTRY_CODE":"US","EPOCH":"2022-06-05T22:00:00.999936","ECCENTRICITY":"0.00017320","APOAPSIS":"540.999","GP_ID":"205449618","ELEMENT_SET_NO":"999","BSTAR":"0.00129650000000","NORAD_CAT_ID":"52106","EPHEMERIS_TYPE":"0","MEAN_MOTION_DOT":"0.00020396","SEMIMAJOR_AXIS":"6917.936","MEAN_ANOMALY":"66.4147","PERIAPSIS":"538.603","OBJECT_ID":"2022-029U","DECAY_DATE":null,"MEAN_ELEMENT_THEORY":"SGP4","MEAN_MOTION":"15.08821900","TLE_LINE1":"1 52106U 22029U   22156.91667824  .00020396  00000-0  12965-2 0  9993","TLE_LINE2":"2 52106  53.2171 131.7213 0001732  68.1072  66.4147 15.08821900  1306","INCLINATION":"53.2171","RCS_SIZE":"LARGE","FILE":"3482995","MEAN_MOTION_DDOT":"0.0000000000000","REV_AT_EPOCH":"130","PERIOD":"95.439","REF_FRAME":"TEME","LAUNCH_DATE":"2022-03-19"},{"TLE_LINE2":"2 52107  53.2176 121.9903 0001785  44.5607 102.3990 15.19033573  1308","INCLINATION":"53.2176","DECAY_DATE":null,"MEAN_ELEMENT_THEORY":"SGP4","TLE_LINE1":"1 52107U 22029V   22156.91667824 -.00722723  00000-0 -36573-1 0  9999","MEAN_MOTION":"15.19033573","PERIOD":"94.797","REF_FRAME":"TEME","LAUNCH_DATE":"2022-03-19","RCS_SIZE":"LARGE","FILE":"3482995","REV_AT_EPOCH":"130","MEAN_MOTION_DDOT":"0.0000000000000","BSTAR":"-0.03657300000000","NORAD_CAT_ID":"52107","MEAN_MOTION_DOT":"-0.00722723","EPHEMERIS_TYPE":"0","PERIAPSIS":"507.533","OBJECT_ID":"2022-029V","SEMIMAJOR_AXIS":"6886.897","MEAN_ANOMALY":"102.3990","EPOCH":"2022-06-05T22:00:00.999936","ELEMENT_SET_NO":"999","ECCENTRICITY":"0.00017850","APOAPSIS":"509.991","GP_ID":"205449406","TIME_SYSTEM":"UTC","SITE":"AFETR","RA_OF_ASC_NODE":"121.9903","OBJECT_TYPE":"PAYLOAD","OBJECT_NAME":"STARLINK-3658","CLASSIFICATION_TYPE":"U","CENTER_NAME":"EARTH","COUNTRY_CODE":"US","ARG_OF_PERICENTER":"44.5607"},{"MEAN_MOTION_DOT":"-0.00722117","EPHEMERIS_TYPE":"0","BSTAR":"-0.03695500000000","NORAD_CAT_ID":"52108","OBJECT_ID":"2022-029W","PERIAPSIS":"508.659","MEAN_ANOMALY":"77.3237","SEMIMAJOR_AXIS":"6888.072","TLE_LINE2":"2 52108  53.2175 121.9829 0001855  38.7755  77.3237 15.18644934  1305","INCLINATION":"53.2175","MEAN_ELEMENT_THEORY":"SGP4","MEAN_MOTION":"15.18644934","TLE_LINE1":"1 52108U 22029W   22156.91667824 -.00722117  00000-0 -36955-1 0  9991","DECAY_DATE":null,"REF_FRAME":"TEME","LAUNCH_DATE":"2022-03-19","PERIOD":"94.821","MEAN_MOTION_DDOT":"0.0000000000000","REV_AT_EPOCH":"130","RCS_SIZE":"LARGE","FILE":"3482995","SITE":"AFETR","TIME_SYSTEM":"UTC","CLASSIFICATION_TYPE":"U","RA_OF_ASC_NODE":"121.9829","OBJECT_TYPE":"PAYLOAD","OBJECT_NAME":"STARLINK-3698","COUNTRY_CODE":"US","CENTER_NAME":"EARTH","ARG_OF_PERICENTER":"38.7755","EPOCH":"2022-06-05T22:00:00.999936","ELEMENT_SET_NO":"999","GP_ID":"205449726","APOAPSIS":"511.215","ECCENTRICITY":"0.00018550"},{"DECAY_DATE":null,"TLE_LINE1":"1 52110U 22029Y   22156.91667824 -.00722459  00000-0 -36769-1 0  9996","MEAN_MOTION":"15.18834984","MEAN_ELEMENT_THEORY":"SGP4","INCLINATION":"53.2175","TLE_LINE2":"2 52110  53.2175 121.9864 0002024  34.9505  96.7240 15.18834984  1302","FILE":"3482995","RCS_SIZE":"LARGE","MEAN_MOTION_DDOT":"0.0000000000000","REV_AT_EPOCH":"130","PERIOD":"94.810","LAUNCH_DATE":"2022-03-19","REF_FRAME":"TEME","NORAD_CAT_ID":"52110","BSTAR":"-0.03676900000000","MEAN_MOTION_DOT":"-0.00722459","EPHEMERIS_TYPE":"0","SEMIMAJOR_AXIS":"6887.497","MEAN_ANOMALY":"96.7240","OBJECT_ID":"2022-029Y","PERIAPSIS":"507.968","EPOCH":"2022-06-05T22:00:00.999936","ECCENTRICITY":"0.00020240","APOAPSIS":"510.756","GP_ID":"205449512","ELEMENT_SET_NO":"999","OBJECT_NAME":"STARLINK-3687","OBJECT_TYPE":"PAYLOAD","RA_OF_ASC_NODE":"121.9864","CLASSIFICATION_TYPE":"U","TIME_SYSTEM":"UTC","SITE":"AFETR","ARG_OF_PERICENTER":"34.9505","CENTER_NAME":"EARTH","COUNTRY_CODE":"US"},{"ARG_OF_PERICENTER":"48.1659","COUNTRY_CODE":"US","CENTER_NAME":"EARTH","CLASSIFICATION_TYPE":"U","RA_OF_ASC_NODE":"122.0014","OBJECT_TYPE":"PAYLOAD","OBJECT_NAME":"STARLINK-3708","SITE":"AFETR","TIME_SYSTEM":"UTC","GP_ID":"205449284","APOAPSIS":"508.183","ECCENTRICITY":"0.00017550","ELEMENT_SET_NO":"999","EPOCH":"2022-06-05T22:00:00.999936","MEAN_ANOMALY":"144.1896","SEMIMAJOR_AXIS":"6885.109","PERIAPSIS":"505.766","OBJECT_ID":"2022-029Z","MEAN_MOTION_DOT":"-0.00723089","EPHEMERIS_TYPE":"0","BSTAR":"-0.03596700000000","NORAD_CAT_ID":"52111","MEAN_MOTION_DDOT":"0.0000000000000","REV_AT_EPOCH":"130","RCS_SIZE":"LARGE","FILE":"3482995","REF_FRAME":"TEME","LAUNCH_DATE":"2022-03-19","PERIOD":"94.760","MEAN_ELEMENT_THEORY":"SGP4","MEAN_MOTION":"15.19625266","TLE_LINE1":"1 52111U 22029Z   22156.91667824 -.00723089  00000-0 -35967-1 0  9996","DECAY_DATE":null,"TLE_LINE2":"2 52111  53.2176 122.0014 0001755  48.1659 144.1896 15.19625266  1307","INCLINATION":"53.2176"},{"PERIAPSIS":"506.853","OBJECT_ID":"2022-029AA","SEMIMAJOR_AXIS":"6886.297","MEAN_ANOMALY":"121.7528","NORAD_CAT_ID":"52112","BSTAR":"-0.03637800000000","EPHEMERIS_TYPE":"0","MEAN_MOTION_DOT":"-0.00723033","PERIOD":"94.785","LAUNCH_DATE":"2022-03-19","REF_FRAME":"TEME","FILE":"3482995","RCS_SIZE":"LARGE","REV_AT_EPOCH":"130","MEAN_MOTION_DDOT":"0.0000000000000","INCLINATION":"53.2176","TLE_LINE2":"2 52112  53.2176 121.9941 0001901  40.3993 121.7528 15.19232151  1303","DECAY_DATE":null,"MEAN_MOTION":"15.19232151","TLE_LINE1":"1 52112U 22029AA  22156.91667824 -.00723033  00000-0 -36378-1 0  9993","MEAN_ELEMENT_THEORY":"SGP4","CENTER_NAME":"EARTH","COUNTRY_CODE":"US","ARG_OF_PERICENTER":"40.3993","TIME_SYSTEM":"UTC","SITE":"AFETR","OBJECT_NAME":"STARLINK-3734","RA_OF_ASC_NODE":"121.9941","OBJECT_TYPE":"PAYLOAD","CLASSIFICATION_TYPE":"U","ELEMENT_SET_NO":"999","APOAPSIS":"509.471","ECCENTRICITY":"0.00019010","GP_ID":"205449071","EPOCH":"2022-06-05T22:00:00.999936"}];
